SAUDISAT 1C             
1 27607U 02058C   23028.07965005  .00001886  00000+0  27561-3 0  9990
2 27607  64.5571 334.2881 0079109 251.9291 107.3182 14.76671640 81740
SAUDISAT 2              
1 28371U 04025F   23028.42606535  .00000583  00000+0  14669-3 0  9992
2 28371  98.4123 351.0132 0026024 130.9136 229.4311 14.54723001985991
SAUDISAT 3              
1 31118U 07012B   23028.43302677  .00000519  00000+0  95682-4 0  9999
2 31118  97.9980 335.3798 0014668 194.6298 165.4485 14.69489058846195
PISAT                   
1 41784U 16059B   23027.65292167  .00001190  00000+0  23293-3 0  9999
2 41784  97.8891  66.9659 0031619 177.9479 182.1860 14.64257195338490
FLYING LAPTOP           
1 42831U 17042G   23027.72762976  .00003149  00000+0  31213-3 0  9991
2 42831  97.3988 233.8998 0013153 343.6877  16.3918 14.92409680301530
SALSAT                  
1 46495U 20068K   23027.81242785  .00005079  00000+0  35279-3 0  9994
2 46495  97.7541 334.6539 0014715 233.2217 126.7660 15.05921928127936
